#dP2017  8 31  0  0  0.00000000     288   u+U UNDEF FIT  GFZ                    
## 1964 345600.00000000   300.00000000 57996 0.0000000000000                    
+   85   C01C02C03C04C05C06C07C08C09C10C11C12C13C14E01E02E03                    
+        E04E05E07E08E09E11E12E14E18E19E22E24E26E30G01G02G03                    
+        G04G06G07G08G09G10G11G12G13G14G15G16G17G18G19G20G21                    
+        G22G23G24G25G26G27G28G29G30G31G32J01R01R02R03R04R05                    
+        R06R07R08R09R10R11R13R15R16R17R18R19R20R21R22R23R24                    
+         00 00 00 00 00 00 00 00 00 00 00 00 00 00 00 00 00                    
++        10 10 10 10 10 10  7 10  9  9  8  7 10  7  5  6  6                    
++         5  7  8  8  6  7  6  8  6  7  6  8  6  8  7  5  5                    
++        10  7  5  5  5  7  6  5  6  8  7  6  5  5  6  7  7                    
++         5  6  5  5  7  5  5 10  5  6  7 10  8  5 10  7 10                    
++         6  5  9  7  7 10  6  5 10  8  7  6 10  7  5  7  8                    
++         0  0  0  0  0  0  0  0  0  0  0  0  0  0  0  0  0                    
%c M  cc GPS ccc cccc cccc cccc cccc ccccc ccccc ccccc ccccc                    
%c cc cc ccc ccc cccc cccc cccc cccc ccccc ccccc ccccc ccccc                    
%f  1.2500000  1.025000000  0.00000000000  0.000000000000000                    
%f  0.0000000  0.000000000  0.00000000000  0.000000000000000                    
%i    0    0    0    0      0      0      0      0         0                    
%i    0    0    0    0      0      0      0      0         0                    
/* PCV:IGS14_1935 OL/AL:FES2004  NONE     YN CLK:CoN ORB:CoN                    
/*     GeoForschungsZentrum Potsdam                                             
/*                                                                              
/*                                                                              
*  2017  8 31  6 50  0.00000000                                                 
PC01 -32269.406982  27115.535526   -642.187192    423.079135                    
PC02   4426.190439  41902.087220   1332.097240     86.931273                    
PC03 -14717.514603  39534.911022    269.580569   -246.417058                    
PC04 -39588.380503  14452.071762   -112.433021     93.378605                    
PC05  21943.051754  35970.683923   1708.932575    304.872046                    
PC06 -17849.498400  38144.347267   4486.230843      0.590453                    
PC07  -8854.957586  26005.373267 -31765.921853    101.085902                    
PC08 -22998.238507  21726.949767  27793.912086   -584.855705                    
PC09  -8421.764656  39932.400012 -11041.152955   -888.879478                    
PC10   5129.988800  33426.723115 -24848.120874    138.438171                    
PC11   -860.842050  17403.375591  21817.865130    519.243051                    
PC12 -19158.742541  18286.547510   8659.675358    174.424654                    
PC13  -5967.212550  24557.340589  33690.379793    710.380033                    
PC14   2209.223489  27756.604649  -2229.559423    855.740899                    
PE01  13376.399633  24410.053701 -10044.364793   -149.910319                    
PE02 -13391.449602 -24419.746714  10038.919149     -8.078711                    
PE03  -2598.932013 -25572.095023  14695.635269     66.923245                    
PE04  14938.408918   8994.889005 -23910.325923    130.119624                    
PE05  11288.778120 -27178.722425  -3156.609326    429.449528                    
PE07 -18555.471552  12868.828908  19147.667411    178.032223                    
PE08 -14866.130325  -8895.551605  24010.540580   6749.333530                    
PE09  18306.585652 -13036.432749 -19257.480591   7030.198812                    
PE11  28243.302397  -8318.764120  -2993.312272   1799.863755                    
PE12  25220.911549   4674.217507  14758.993118   2285.948172                    
PE14  20860.197381  -8313.203285   8900.436531   6724.372628                    
PE18 -26695.381396   3334.911738 -17554.818841   6837.323456                    
PE19   1288.490908  26417.618008 -13289.863530     13.656844                    
PE22  -8174.671599 -15097.968461 -24125.021652   6584.605016                    
PE24  18816.095771  -1260.500292  22812.324633   5693.352596                    
PE26 -14770.444181  16757.863395  19410.861072   6895.458285                    
PE30 -22838.485022 -16423.587509  -9220.452818   6526.822767                    
PG01 -19804.239847 -13802.926951 -11516.362763     55.594668                    
PG02  -1185.824591  15823.339774  21832.841351    341.556491                    
PG03 -13646.033265 -19455.580256  11894.676158    -73.019840                    
PG04  11644.154280 -22323.777684  -7707.233748     18.285157                    
PG06 -16692.618456   8799.046669  18714.688623    393.323070                    
PG07 -25986.548127  -6104.781504  -2239.390515    308.804935                    
PG08  -1667.460828 -17622.320772 -19721.998491    -71.812868                    
PG09 -19048.674832    557.763526  18484.138689    434.700062                    
PG10  12702.756355  -9772.299623 -21132.521238     52.131817                    
PG11 -15424.967897 -12445.177350 -18217.966288   -712.623241                    
PG12  10113.743220  23189.754404   8240.865208    374.304431                    
PG13  -6321.823351  19618.935782 -16879.940690    -90.584254                    
PG14  18494.798313 -18687.782579   3337.814028    -82.358817                    
PG15   6571.601949  15736.947824 -20458.020898   -355.304049                    
PG16    340.826103 -25291.466125   7266.195397     36.915594                    
PG17 -21536.153411  14151.512020  -5721.920657   -160.158009                    
PG18  16471.649142   1794.964104 -20203.454816    628.437863                    
PG19 -19854.174023  17716.664540   1797.934184   -488.543999                    
PG20  13600.698778  21796.043691  -6926.477577    485.054741                    
PG21  25836.171162   2094.442308  -5199.023758   -483.082896                    
PG22 -10829.518734 -23899.258081   4227.678924   -106.031788                    
PG23 -13347.425903  -8701.586600  21540.539003   -216.877867                    
PG24  17850.880078  14429.600141 -13663.022010    -39.295243                    
PG25  15355.266201  13188.534553  17155.244797   -448.161746                    
PG26   6053.184435 -20289.014685  15981.305176   -438.771535                    
PG27   9380.618754 -21350.167391 -12567.103341    318.313925                    
PG28 -13539.202425   5255.515962 -21611.348788    641.842955                    
PG29  17070.159247   2904.942964  20119.813839    568.543192                    
PG30 -23107.847703   2085.641085 -13051.303012    143.075019                    
PG31  14900.130583  -9774.828416  19886.580078    178.377712                    
PG32  20405.745579 -16480.794083  -3958.962529   -492.332596                    
PJ01 -24902.333266  26467.704227  26450.043803    -43.620945                    
PR01  -9977.118325  18506.633227  14436.915409     14.851650                    
PR02  -2246.228102  25077.558230  -4200.765272    267.901245                    
PR03   6508.689825  15745.272408 -18958.780394    109.497612                    
PR04  11443.765915  -3278.354635 -22540.400867    228.926690                    
PR05   9541.854154 -19611.104866 -13241.392711   -156.398293                    
PR06   1386.630761 -24938.079942   5100.395889    116.878184                    
PR07  -6708.543465 -15346.076182  19262.605797    -15.102388                    
PR08 -11422.531936   2594.537188  22712.195108    -26.744685                    
PR09  -6445.036481 -16922.933489  18014.905499     36.386223                    
PR10 -18949.136949 -17070.663738   1609.045216      9.787407                    
PR11 -19313.303238  -7016.652647 -15129.795330     -9.021530                    
PR13   8270.235722  17064.983739 -17065.188292     -2.231318                    
PR15  20036.208915   9256.982513  12878.756552     -0.560573                    
PR16   8765.909487  -6867.491709  22937.652880     73.127181                    
PR17  12897.508968   5837.296289  21229.711636     67.840178                    
PR18  23392.422025  -3967.497870   9294.595937    164.330864                    
PR19  21136.503060 -11407.437988  -8604.153390    -21.605746                    
PR20   5411.975028 -12278.465402 -21684.051388   -305.345654                    
PR21 -12885.127777  -5734.541395 -21253.412961    131.955834                    
PR22 -23863.711592   4825.602849  -7822.587436     27.594881                    
PR23 -19349.724577  12394.472675  11057.333448    104.946256                    
PR24  -4980.817457  12363.095099  21719.005776   -155.114911                    
EOF                                     
